{
  "norad_id": 53619,
  "name": "STARLINK-4609",
  "history": [
    {
      "epoch": "2026-03-28T21:21:19.212480Z",
      "apogee_km": 540.7260402103102,
      "perigee_km": 538.8125473294531,
      "latitude_deg": -2.124578739414114e-05,
      "longitude_deg": 1.288863761994445,
      "height_km": 540.6047390228259,
      "semi_major_axis_km": 6917.906293769882,
      "eccentricity": 0.0001383,
      "inclination_deg": 53.2162,
      "raan_deg": 147.9227,
      "arg_perigee_deg": 86.3981,
      "mean_anomaly_deg": 273.7169,
      "mean_motion_rev_day": 15.08831525
    }
  ]
}